COMMENT,ORIGINATOR,NORAD_CAT_ID,OBJECT_NAME,OBJECT_TYPE,CLASSIFICATION_TYPE,INTLDES,EPOCH,EPOCH_MICROSECONDS,MEAN_MOTION,ECCENTRICITY,INCLINATION,RA_OF_ASC_NODE,ARG_OF_PERICENTER,MEAN_ANOMALY,EPHEMERIS_TYPE,ELEMENT_SET_NO,REV_AT_EPOCH,BSTAR,MEAN_MOTION_DOT,MEAN_MOTION_DDOT,FILE,TLE_LINE0,TLE_LINE1,TLE_LINE2,OBJECT_ID,OBJECT_NUMBER,SEMIMAJOR_AXIS,PERIOD,APOGEE,PERIGEE,DECAYED
GENERATED VIA SPACETRACK.ORG API,18 SPCS,44479,AMOS 17,PAYLOAD,U,19050A,2024-03-17 19:43:36,677856,1.00270477,0.0001636,0.0181,114.2693,252.4146,122.0505,0,999,1695,0,0.00000096,0,4230670,0 AMOS 17,1 44479U 19050A   24077.82195229  .00000096  00000-0  00000-0 0  9996,2 44479   0.0181 114.2693 0001636 252.4146 122.0505  1.00270477 16950,2019-050A,44479,42165.099,1436.116,35793.862,35780.065,0
GENERATED VIA SPACETRACK.ORG API,18 SPCS,42749,ECHOSTAR 21,PAYLOAD,U,17032A,2024-03-17 19:41:43,897344,1.00271678,0.0002483,2.6971,317.9361,26.223,137.3611,0,999,2488,0,0.00000052,0,4230213,0 ECHOSTAR 21,1 42749U 17032A   24077.82064696  .00000052  00000-0  00000+0 0  9996,2 42749   2.6971 317.9361 0002483  26.2230 137.3611  1.00271678 24881,2017-032A,42749,42164.762,1436.098,35797.096,35776.157,0
GENERATED VIA SPACETRACK.ORG API,18 SPCS,33373,NIMIQ 4,PAYLOAD,U,08044A,2024-03-17 19:15:02,403360,1.00267903,0.0001961,0.0251,151.9376,202.471,28.2204,0,999,5660,0,-0.00000233,0,4230380,0 NIMIQ 4,1 33373U 08044A   24077.80211115 -.00000233  00000-0  00000+0 0  9992,2 33373   0.0251 151.9376 0001961 202.4710  28.2204  1.00267903 56607,2008-044A,33373,42165.820,1436.153,35795.954,35779.417,0
GENERATED VIA SPACETRACK.ORG API,18 SPCS,43162,SBIRS GEO 3 (USA 282),PAYLOAD,U,18009A,2024-03-17 18:53:06,621216,1.00272678,0.0001952,2.4719,332.3525,16.1698,311.1605,0,999,2260,0,0.00000116,0,4230173,0 SBIRS GEO 3 (USA 282),1 43162U 18009A   24077.78688219  .00000116  00000-0  00000+0 0  9990,2 43162   2.4719 332.3525 0001952  16.1698 311.1605  1.00272678 22602,2018-009A,43162,42164.482,1436.084,35794.577,35778.116,0
GENERATED VIA SPACETRACK.ORG API,18 SPCS,43162,SBIRS GEO 3 (USA 282),PAYLOAD,U,18009A,2024-03-17 18:53:06,621216,1.00272678,0.0001952,2.4719,332.3525,16.1698,311.1605,0,999,2260,0,0.00000116,0,4230670,0 SBIRS GEO 3 (USA 282),1 43162U 18009A   24077.78688219  .00000116  00000-0  00000-0 0  9991,2 43162   2.4719 332.3525 0001952  16.1698 311.1605  1.00272678 22602,2018-009A,43162,42164.482,1436.084,35794.577,35778.116,0
GENERATED VIA SPACETRACK.ORG API,18 SPCS,33436,ASTRA 1M,PAYLOAD,U,08057A,2024-03-17 18:01:13,855584,1.0027031,0.0001424,0.0166,135.1864,261.5211,68.5724,0,999,3750,0,0.00000106,0,4230670,0 ASTRA 1M,1 33436U 08057A   24077.75085481  .00000106  00000-0  00000-0 0  9994,2 33436   0.0166 135.1864 0001424 261.5211  68.5724  1.00270310 37502,2008-057A,33436,42165.145,1436.118,35793.015,35781.006,0
GENERATED VIA SPACETRACK.ORG API,18 SPCS,25967,UFO 10 (USA 146),PAYLOAD,U,99063A,2024-03-17 17:26:42,646272,1.00274036,0.0003104,9.4156,31.0271,285.3677,98.2274,0,999,8911,0,-0.00000197,0,4230670,0 UFO 10 (USA 146),1 25967U 99063A   24077.72688248 -.00000197  00000-0  00000-0 0  9999,2 25967   9.4156  31.0271 0003104 285.3677  98.2274  1.00274036 89110,1999-063A,25967,42164.101,1436.065,35799.054,35772.878,0
GENERATED VIA SPACETRACK.ORG API,18 SPCS,8832,TITAN 3C TRANSTAGE DEB,DEBRIS,U,76023J,2024-03-17 16:09:42,166080,0.98261601,0.013779,20.1323,53.098,73.7483,282.6266,0,999,10952,0,-0.0000029,0,4230670,0 TITAN 3C TRANSTAGE DEB,1 08832U 76023J   24077.67340470 -.00000290  00000-0  00000-0 0  9992,2 08832  20.1323  53.0980 0137790  73.7483 282.6266  0.98261601109520,1976-023J,8832,42737.845,1465.476,36948.595,35770.825,0
GENERATED VIA SPACETRACK.ORG API,18 SPCS,29162,EUTE 113 WEST A(SATMEX 6,PAYLOAD,U,06020A,2024-03-17 15:40:15,259296,1.00277191,0.0003241,0.2421,97.7759,266.985,293.3545,0,999,6523,0,-0.00000053,0,4230670,0 EUTE 113 WEST A(SATMEX 6,1 29162U 06020A   24077.65295439 -.00000053  00000-0  00000-0 0  9990,2 29162   0.2421  97.7759 0003241 266.9850 293.3545  1.00277191 65236,2006-020A,29162,42163.217,1436.019,35798.747,35771.416,0
GENERATED VIA SPACETRACK.ORG API,18 SPCS,43453,TITAN 3C TRANSTAGE DEB,DEBRIS,U,69013L,2024-03-17 15:20:31,182720,1.07401109,0.073373,1.7207,232.0689,213.0835,141.4796,0,999,2321,0,-0.00000108,0,4230380,0 TITAN 3C TRANSTAGE DEB,1 43453U 69013L   24077.63924980 -.00000108  00000-0  00000+0 0  9998,2 43453   1.7207 232.0689 0733730 213.0835 141.4796  1.07401109 23216,1969-013L,43453,40277.515,1340.768,36854.662,30944.098,0
GENERATED VIA SPACETRACK.ORG API,18 SPCS,43453,TITAN 3C TRANSTAGE DEB,DEBRIS,U,69013L,2024-03-17 15:20:31,182720,1.07401109,0.073373,1.7207,232.0689,213.0835,141.4796,0,999,2321,0,-0.00000108,0,4230670,0 TITAN 3C TRANSTAGE DEB,1 43453U 69013L   24077.63924980 -.00000108  00000-0  00000-0 0  9999,2 43453   1.7207 232.0689 0733730 213.0835 141.4796  1.07401109 23216,1969-013L,43453,40277.515,1340.768,36854.662,30944.098,0
GENERATED VIA SPACETRACK.ORG API,18 SPCS,43453,TITAN 3C TRANSTAGE DEB,DEBRIS,U,69013L,2024-03-17 15:20:29,106528,1.07400744,0.0736397,1.7209,232.0489,213.0827,141.4621,0,999,2321,0,-0.00000108,0,4231335,0 TITAN 3C TRANSTAGE DEB,1 43453U 69013L   24077.63922577 -.00000108  00000-0  00000+0 0  9998,2 43453   1.7209 232.0489 0736397 213.0827 141.4621  1.07400744 23210,1969-013L,43453,40277.606,1340.773,36865.502,30933.440,0
GENERATED VIA SPACETRACK.ORG API,18 SPCS,43453,TITAN 3C TRANSTAGE DEB,DEBRIS,U,69013L,2024-03-17 15:20:19,141152,1.07401202,0.0738009,1.7209,232.0227,213.1045,141.4265,0,999,2321,0,-0.00000108,0,4231680,0 TITAN 3C TRANSTAGE DEB,1 43453U 69013L   24077.63911043 -.00000108  00000-0  00000-0 0  9995,2 43453   1.7209 232.0227 0738009 213.1045 141.4265  1.07401202 23219,1969-013L,43453,40277.491,1340.767,36871.871,30926.841,0
GENERATED VIA SPACETRACK.ORG API,18 SPCS,20253,FLTSATCOM 8 (USA 46),PAYLOAD,U,89077A,2024-03-17 15:05:32,563104,1.00267707,0.0006786,12.663,356.1161,358.4406,173.3126,0,999,25238,0,-0.00000375,0,4230670,0 FLTSATCOM 8 (USA 46),1 20253U 89077A   24077.62884911 -.00000375  00000-0  00000-0 0  9998,2 20253  12.6630 356.1161 0006786 358.4406 173.3126  1.00267707252385,1989-077A,20253,42165.875,1436.155,35816.354,35759.126,0
GENERATED VIA SPACETRACK.ORG API,18 SPCS,29055,ASTRA 1KR,PAYLOAD,U,06012A,2024-03-17 14:34:59,741760,1.00269591,0.0003143,0.0462,285.29,11.1052,117.1773,0,999,6550,0,0.00000106,0,4230364,0 ASTRA 1KR,1 29055U 06012A   24077.60763590  .00000106  00000-0  00000+0 0  9992,2 29055   0.0462 285.2900 0003143  11.1052 117.1773  1.00269591 65508,2006-012A,29055,42165.347,1436.128,35800.465,35773.959,0
GENERATED VIA SPACETRACK.ORG API,18 SPCS,29055,ASTRA 1KR,PAYLOAD,U,06012A,2024-03-17 14:34:59,741760,1.00269591,0.0003143,0.0462,285.29,11.1052,117.1773,0,999,3747,0,0.00000106,0,4230670,0 ASTRA 1KR,1 29055U 06012A   24077.60763590  .00000106  00000-0  00000-0 0  9993,2 29055   0.0462 285.2900 0003143  11.1052 117.1773  1.00269591 37473,2006-012A,29055,42165.347,1436.128,35800.465,35773.959,0
GENERATED VIA SPACETRACK.ORG API,18 SPCS,28945,SPAINSAT,PAYLOAD,U,06007A,2024-03-17 14:17:16,512864,1.00272912,0.0003034,0.0363,239.8821,95.8041,24.2735,0,999,6597,0,-0.00000229,0,4230469,0 SPAINSAT,1 28945U 06007A   24077.59533001 -.00000229  00000-0  00000+0 0  9990,2 28945   0.0363 239.8821 0003034  95.8041  24.2735  1.00272912 65976,2006-007A,28945,42164.416,1436.081,35799.074,35773.488,0
GENERATED VIA SPACETRACK.ORG API,18 SPCS,28945,SPAINSAT,PAYLOAD,U,06007A,2024-03-17 14:17:16,539648,1.00272926,0.000303,0.0363,239.615,96.2155,24.1293,0,999,6597,0,-0.00000229,0,4230670,0 SPAINSAT,1 28945U 06007A   24077.59533032 -.00000229  00000-0  00000-0 0  9995,2 28945   0.0363 239.6150 0003030  96.2155  24.1293  1.00272926 65979,2006-007A,28945,42164.412,1436.081,35799.053,35773.501,0
GENERATED VIA SPACETRACK.ORG API,18 SPCS,28945,SPAINSAT,PAYLOAD,U,06007A,2024-03-17 14:17:16,666656,1.00272986,0.0003009,0.036,238.0838,98.8641,23.0126,0,999,6598,0,-0.00000229,0,4231680,0 SPAINSAT,1 28945U 06007A   24077.59533179 -.00000229  00000-0  00000-0 0  9997,2 28945   0.0360 238.0838 0003009  98.8641  23.0126  1.00272986 65986,2006-007A,28945,42164.395,1436.080,35798.948,35773.573,0
GENERATED VIA SPACETRACK.ORG API,18 SPCS,44479,AMOS 17,PAYLOAD,U,19050A,2024-03-17 13:40:42,822048,1.00270288,0.0001627,0.0175,115.707,250.4488,31.6068,0,999,1694,0,0.00000096,0,4230125,0 AMOS 17,1 44479U 19050A   24077.56994007  .00000096  00000-0  00000-0 0  9998,2 44479   0.0175 115.7070 0001627 250.4488  31.6068  1.00270288 16943,2019-050A,44479,42165.152,1436.118,35793.877,35780.156,0
GENERATED VIA SPACETRACK.ORG API,18 SPCS,43162,SBIRS GEO 3 (USA 282),PAYLOAD,U,18009A,2024-03-17 13:26:42,675360,1.00272637,0.0001931,2.472,332.3505,14.7497,230.7596,0,999,2260,0,0.00000116,0,4230125,0 SBIRS GEO 3 (USA 282),1 43162U 18009A   24077.56021615  .00000116  00000-0  00000-0 0  9998,2 43162   2.4720 332.3505 0001931  14.7497 230.7596  1.00272637 22600,2018-009A,43162,42164.493,1436.085,35794.500,35778.216,0
GENERATED VIA SPACETRACK.ORG API,18 SPCS,25001,TITAN 3C TRANSTAGE DEB,DEBRIS,U,68081H,2024-03-17 13:04:42,720096,1.01691223,0.0069812,1.0246,348.381,39.231,138.6189,0,999,10996,0,0.00000019,0,4230125,0 TITAN 3C TRANSTAGE DEB,1 25001U 68081H   24077.54493889  .00000019  00000-0  00000-0 0  9991,2 25001   1.0246 348.3810 0069812  39.2310 138.6189  1.01691223109960,1968-081H,25001,41771.448,1416.051,35684.928,35101.698,0
GENERATED VIA SPACETRACK.ORG API,18 SPCS,41384,IRNSS 1F,PAYLOAD,U,16015A,2024-03-17 12:55:44,889600,1.00272101,0.0019497,3.3551,121.3159,191.0034,89.6459,0,999,2942,0,0.00000146,0,4230125,0 IRNSS 1F,1 41384U 16015A   24077.53871400  .00000146  00000-0  00000-0 0  9992,2 41384   3.3551 121.3159 0019497 191.0034  89.6459  1.00272101 29421,2016-015A,41384,42164.643,1436.092,35868.717,35704.300,0
